ORBCOMM FM24            
1 25478U 98053D   25165.59723495  .00000858  00000+0  32702-3 0  9991
2 25478  45.0085 281.3773 0003909 213.7922 146.2678 14.38097948397071
ORBCOMM FM25            
1 25479U 98053E   25165.70747062  .00000881  00000+0  33467-3 0  9996
2 25479  45.0077 279.1252 0006132 225.8479 134.1866 14.38073229397387
ORBCOMM FM26            
1 25480U 98053F   25165.64781169  .00000659  00000+0  26687-3 0  9996
2 25480  45.0071 275.8476 0007717 242.1520 117.8546 14.37134620397287
ORBCOMM FM27            
1 25481U 98053G   25165.62576766  .00000936  00000+0  35248-3 0  9991
2 25481  45.0060 279.7167 0002439 215.7940 144.2745 14.38102305397342
ORBCOMM FM28            
1 25482U 98053H   25165.87210021  .00000605  00000+0  24324-3 0  9994
2 25482  45.0042 216.0521 0006654 274.8532  85.1556 14.38290200398196
ORBCOMM FM30            
1 25980U 99065A   25165.77713250  .00000765  00000+0  30153-3 0  9996
2 25980  45.0312 101.1212 0007931 350.2438   9.8255 14.37298050334103
ORBCOMM FM31            
1 25981U 99065B   25165.54178041  .00000746  00000+0  29561-3 0  9995
2 25981  45.0226  95.7251 0004999   6.1768 353.9141 14.37235034333629
ORBCOMM FM32            
1 25982U 99065C   25165.58650577  .00000763  00000+0  30688-3 0  9990
2 25982  45.0150 112.0742 0007288   3.9246 356.1658 14.36280857334221
